[{"OBJECT_NAME":"ORBCOMM FM113","OBJECT_ID":"2015-081G","EPOCH":"2026-03-09T06:16:31.573920","MEAN_MOTION":14.58730378,"ECCENTRICITY":6.326e-5,"INCLINATION":47.002,"RA_OF_ASC_NODE":23.0518,"ARG_OF_PERICENTER":114.2825,"MEAN_ANOMALY":245.8127,"EPHEMERIS_TYPE":0,"CLASSIFICATION_TYPE":"U","NORAD_CAT_ID":41185,"ELEMENT_SET_NO":999,"REV_AT_EPOCH":54434,"BSTAR":0.0002290927,"MEAN_MOTION_DOT":9.09e-6,"MEAN_MOTION_DDOT":0},{"OBJECT_NAME":"COSMOS 2251 DEB","OBJECT_ID":"1993-036AKK","EPOCH":"2026-03-07T20:34:24.246912","MEAN_MOTION":14.64159108,"ECCENTRICITY":0.00360205,"INCLINATION":74.1333,"RA_OF_ASC_NODE":135.7836,"ARG_OF_PERICENTER":357.6194,"MEAN_ANOMALY":2.4797,"EPHEMERIS_TYPE":0,"CLASSIFICATION_TYPE":"U","NORAD_CAT_ID":35441,"ELEMENT_SET_NO":999,"REV_AT_EPOCH":88675,"BSTAR":0.0019139953,"MEAN_MOTION_DOT":0.00010147,"MEAN_MOTION_DDOT":0}]
